NORAD_CAT_ID,OBJECT_NAME,OBJECT_TYPE,EPOCH,MEAN_MOTION,ECCENTRICITY,INCLINATION,RA_OF_ASC_NODE,ARG_OF_PERICENTER,MEAN_ANOMALY,BSTAR,MEAN_MOTION_DOT,MEAN_MOTION_DDOT,TLE_LINE0,TLE_LINE1,TLE_LINE2,SEMIMAJOR_AXIS,PERIOD,APOGEE,PERIGEE,DECAYED
52660.0,STARLINK-4081,PAYLOAD,2022-09-11 22:00:00,15.08835593,0.0001924,53.2173,116.7932,54.6687,50.4396,5.9766e-05,6.63e-06,0.0,0 STARLINK-4081,1 52660U 22053E   22254.91667824  .00000663  00000-0  59766-4 0  9991,2 52660  53.2173 116.7932 0001924  54.6687  50.4396 15.08835593  1301,6917.894,95.438,541.09,538.428,0.0
52660.0,STARLINK-4081,PAYLOAD,2022-09-12 04:00:00,15.08842191,0.0001486,53.2136,115.671,55.9957,327.7155,0.00040303,6.132e-05,0.0,0 STARLINK-4081,1 52660U 22053E   22255.16667824  .00006132  00000-0  40303-3 0  9992,2 52660  53.2136 115.6710 0001486  55.9957 327.7155 15.08842191 18706,6917.874,95.437,540.7669999999998,538.711,0.0
52660.0,STARLINK-4081,PAYLOAD,2022-09-12 14:00:01,15.08853674,0.000144,53.2141,113.7987,67.4931,60.7239,0.0007928999999999,0.00012358,0.0,0 STARLINK-4081,1 52660U 22053E   22255.58334491  .00012358  00000-0  79290-3 0  9993,2 52660  53.2141 113.7987 0001440  67.4931  60.7239 15.08853674  1300,6917.839,95.437,540.7,538.707,0.0
52660.0,STARLINK-4081,PAYLOAD,2022-09-12 22:00:00,15.08842114,0.0001601,53.2143,112.3042,60.4516,79.3891,-0.00023669,-4.053e-05,0.0,0 STARLINK-4081,1 52660U 22053E   22255.91667824 -.00004053  00000-0 -23669-3 0  9993,2 52660  53.2143 112.3042 0001601  60.4516  79.3891 15.08842114  1307,6917.874,95.437,540.846,538.631,0.0
52660.0,STARLINK-4081,PAYLOAD,2022-09-13 06:00:00,15.08865236,0.0001565999999999,53.2139,110.8065,62.1523,89.2818,-0.0014602,-0.00023468,0.0,0 STARLINK-4081,1 52660U 22053E   22256.25001157 -.00023468  00000-0 -14602-2 0  9999,2 52660  53.2139 110.8065 0001566  62.1523  89.2818 15.08865236 18865,6917.803000000001,95.436,540.752,538.585,0.0
52660.0,STARLINK-4081,PAYLOAD,2022-09-13 14:00:01,15.08856476,0.0001561999999999,53.2142,109.3091,70.7606,92.2883,-0.00057342,-9.407e-05,0.0,0 STARLINK-4081,1 52660U 22053E   22256.58334491 -.00009407  00000-0 -57342-3 0  9991,2 52660  53.2142 109.3091 0001562  70.7606  92.2883 15.08856476  1307,6917.83,95.437,540.776,538.614,0.0
52660.0,STARLINK-4081,PAYLOAD,2022-09-13 22:00:00,15.0883586,0.0001691,53.2141,107.8143,63.4081,111.2453,0.00039691,6.034e-05,0.0,0 STARLINK-4081,1 52660U 22053E   22256.91667824  .00006034  00000-0  39691-3 0  9995,2 52660  53.2141 107.8143 0001691  63.4081 111.2453 15.08835860  1305,6917.893,95.438,540.928,538.5880000000002,0.0
52660.0,STARLINK-4081,PAYLOAD,2022-09-14 14:00:01,15.08859693,0.000155,53.2164,104.82,65.6315,132.1991,-0.0017947,-0.00028752,0.0,0 STARLINK-4081,1 52660U 22053E   22257.58334491 -.00028752  00000-0 -17947-2 0  9992,2 52660  53.2164 104.8200 0001550  65.6315 132.1991 15.08859693 19060,6917.82,95.436,540.757,538.613,0.0
52660.0,STARLINK-4081,PAYLOAD,2022-09-14 22:00:00,15.08821876,0.0001604,53.214,103.3249,62.4729,146.9337,0.0011094,0.00017403,0.0,0 STARLINK-4081,1 52660U 22053E   22257.91667824  .00017403  00000-0  11094-2 0  9994,2 52660  53.2140 103.3249 0001604  62.4729 146.9337 15.08821876  1302,6917.936,95.439,540.91,538.691,0.0
52660.0,STARLINK-4081,PAYLOAD,2022-09-15 14:00:01,15.08849342,0.0001493,53.214,100.3304,72.2289,160.355,0.00097435,0.00015257,0.0,0 STARLINK-4081,1 52660U 22053E   22258.58334491  .00015257  00000-0  97435-3 0  9998,2 52660  53.2140 100.3304 0001493  72.2289 160.3550 15.08849342  1302,6917.852,95.437,540.75,538.684,0.0
52660.0,STARLINK-4081,PAYLOAD,2022-09-15 16:00:00,15.08865513,0.0001486,53.214,99.9568,69.8643,255.6178,-0.0010497,-0.00016967,0.0,0 STARLINK-4081,1 52660U 22053E   22258.66667824 -.00016967  00000-0 -10497-2 0  9999,2 52660  53.2140  99.9568 0001486  69.8643 255.6178 15.08865513  1307,6917.802,95.436,540.695,538.639,0.0
52660.0,STARLINK-4081,PAYLOAD,2022-09-16 12:49:12,15.0884352,0.0001851999999999,53.2137,96.0634,66.6673,293.4514,0.00011968,1.617e-05,0.0,0 STARLINK-4081,1 52660U 22053E   22259.53416705  .00001617  00000-0  11968-3 0  9995,2 52660  53.2137  96.0634 0001852  66.6673 293.4514 15.08843520 19363,6917.87,95.437,541.016,538.453,0.0
52660.0,STARLINK-4081,PAYLOAD,2022-09-16 19:10:44,15.08836948,0.0001626999999999,53.2159,94.8723,65.1529,294.9632,0.00013627,1.881e-05,0.0,0 STARLINK-4081,1 52660U 22053E   22259.79913123  .00001881  00000-0  13627-3 0  9996,2 52660  53.2159  94.8723 0001627  65.1529 294.9632 15.08836948 19404,6917.89,95.438,540.88,538.629,0.0
52660.0,STARLINK-4081,PAYLOAD,2022-09-16 20:46:07,15.08844012,0.000158,53.2158,94.5756,63.8401,296.2753,4.8212e-05,4.79e-06,0.0,0 STARLINK-4081,1 52660U 22053E   22259.86536982  .00000479  00000-0  48212-4 0  9999,2 52660  53.2158  94.5756 0001580  63.8401 296.2753 15.08844012 19419,6917.868,95.437,540.826,538.64,0.0
52660.0,STARLINK-4081,PAYLOAD,2022-09-16 23:56:53,15.08847051,0.0001568,53.2158,93.9808,63.5303,296.585,6.8724e-05,8.06e-06,0.0,0 STARLINK-4081,1 52660U 22053E   22259.99784663  .00000806  00000-0  68724-4 0  9998,2 52660  53.2158  93.9808 0001568  63.5303 296.5850 15.08847051 19433,6917.859,95.437,540.809,538.639,0.0
52660.0,STARLINK-4081,PAYLOAD,2022-09-17 12:39:58,15.08850123,0.0001565999999999,53.2158,91.6019,63.9038,296.2115,8.152100000000001e-05,1.01e-05,0.0,0 STARLINK-4081,1 52660U 22053E   22260.52776134  .00001010  00000-0  81521-4 0  9991,2 52660  53.2158  91.6019 0001566  63.9038 296.2115 15.08850123 19513,6917.849,95.437,540.798,538.631,0.0
52660.0,STARLINK-4081,PAYLOAD,2022-09-17 19:01:31,15.08852694,0.000139,53.2159,90.4118,61.8738,298.2395,-0.00018159,-3.178e-05,0.0,0 STARLINK-4081,1 52660U 22053E   22260.79272823 -.00003178  00000-0 -18159-3 0  9991,2 52660  53.2159  90.4118 0001390  61.8738 298.2395 15.08852694 19551,6917.842,95.437,540.668,538.745,0.0
52660.0,STARLINK-4081,PAYLOAD,2022-09-18 18:52:18,15.08846278,0.000139,53.2159,85.9506,65.0825,295.0312,9.0136e-05,1.147e-05,0.0,0 STARLINK-4081,1 52660U 22053E   22261.78632104  .00001147  00000-0  90136-4 0  9991,2 52660  53.2159  85.9506 0001390  65.0825 295.0312 15.08846278 19706,6917.861,95.437,540.688,538.765,0.0
52660.0,STARLINK-4081,PAYLOAD,2022-09-19 12:21:32,15.08843738,0.0001414,53.216,82.6798,63.3569,296.7568,9.591e-06,-1.35e-06,0.0,0 STARLINK-4081,1 52660U 22053E   22262.51496194 -.00000135  00000-0  95910-5 0  9993,2 52660  53.2160  82.6798 0001414  63.3569 296.7568 15.08843738 19819,6917.869000000002,95.437,540.712,538.756,0.0
52660.0,STARLINK-4081,PAYLOAD,2022-09-19 18:43:05,15.08841853,0.0001402,53.2157,81.4902,60.8733,299.2399,4.6695e-05,4.55e-06,0.0,0 STARLINK-4081,1 52660U 22053E   22262.77992165  .00000455  00000-0  46695-4 0  9999,2 52660  53.2157  81.4902 0001402  60.8733 299.2399 15.08841853 19851,6917.875,95.437,540.71,538.77,0.0
52660.0,STARLINK-4081,PAYLOAD,2022-09-20 12:12:19,15.08841038,0.0001433,53.2153,78.2192,61.3683,298.7453,-8.930800000000001e-06,-4.3e-06,0.0,0 STARLINK-4081,1 52660U 22053E   22263.50856461 -.00000430  00000-0 -89308-5 0  9993,2 52660  53.2153  78.2192 0001433  61.3683 298.7453 15.08841038 19968,6917.877,95.437,540.734,538.751,0.0
52660.0,STARLINK-4081,PAYLOAD,2022-09-20 20:09:15,15.0883867,0.0001443,53.2154,76.7324,60.9722,299.1415,-3.0529e-05,-7.74e-06,0.0,0 STARLINK-4081,1 52660U 22053E   22263.83976644 -.00000774  00000-0 -30529-4 0  9996,2 52660  53.2154  76.7324 0001443  60.9722 299.1415 15.08838670 20018,6917.884,95.438,540.748,538.751,0.0
52660.0,STARLINK-4081,PAYLOAD,2022-09-20 23:20:02,15.08839759,0.000145,53.2155,76.1378,60.6835,299.4302,-2.3614e-05,-6.64e-06,0.0,0 STARLINK-4081,1 52660U 22053E   22263.97224539 -.00000664  00000-0 -23614-4 0  9995,2 52660  53.2155  76.1378 0001450  60.6835 299.4302 15.08839759 20031,6917.880999999999,95.438,540.749,538.743,0.0
52660.0,STARLINK-4081,PAYLOAD,2022-09-21 13:38:29,15.08841585,0.0001409999999999,53.2153,73.461,57.978,302.1349,6.2064e-05,7.000000000000003e-06,0.0,0 STARLINK-4081,1 52660U 22053E   22264.56840149  .00000700  00000-0  62064-4 0  9993,2 52660  53.2153  73.4610 0001410  57.9780 302.1349 15.08841585 20125,6917.876,95.437,540.716,538.765,0.0
52660.0,STARLINK-4081,PAYLOAD,2022-09-22 18:15:26,15.08839882,0.0001060999999999,53.2167,68.1059,89.0141,271.0972,8.415299999999999e-05,1.052e-05,0.0,0 STARLINK-4081,1 52660U 22053E   22265.76072124  .00001052  00000-0  84153-4 0  9990,2 52660  53.2167  68.1059 0001061  89.0141 271.0972 15.08839882 20300,6917.880999999999,95.438,540.48,539.012,0.0
52660.0,STARLINK-4081,PAYLOAD,2022-09-23 03:47:45,15.08841279,0.0001441999999999,53.2164,66.3245,54.3862,305.7265,7.0013e-05,8.27e-06,0.0,0 STARLINK-4081,1 52660U 22053E   22266.15816322  .00000827  00000-0  70013-4 0  9999,2 52660  53.2164  66.3245 0001442  54.3862 305.7265 15.08841279 20361,6917.876,95.437,540.739,538.744,0.0
52660.0,STARLINK-4081,PAYLOAD,2022-09-23 19:41:37,15.08833179,0.0001504,53.2165,63.351000000000006,57.7026,302.4111,-2.4204e-05,-6.73e-06,0.0,0 STARLINK-4081,1 52660U 22053E   22266.82057410 -.00000673  00000-0 -24204-4 0  9990,2 52660  53.2165  63.3510 0001504  57.7026 302.4111 15.08833179 20467,6917.901,95.438,540.807,538.726,0.0
52660.0,STARLINK-4081,PAYLOAD,2022-09-24 17:57:00,15.08844077,0.0001515,53.2167,59.1879,58.5923,301.5217,0.00011726,1.579e-05,0.0,0 STARLINK-4081,1 52660U 22053E   22267.74792563  .00001579  00000-0  11726-3 0  9995,2 52660  53.2167  59.1879 0001515  58.5923 301.5217 15.08844077 20609,6917.868,95.437,540.781,538.685,0.0
52660.0,STARLINK-4081,PAYLOAD,2022-09-25 16:12:24,15.08843523,0.0001541999999999,53.2171,55.0248,59.155,300.9594,0.00016801,2.387e-05,0.0,0 STARLINK-4081,1 52660U 22053E   22268.67528522  .00002387  00000-0  16801-3 0  9997,2 52660  53.2171  55.0248 0001542  59.1550 300.9594 15.08843523 20743,6917.87,95.437,540.8009999999998,538.668,0.0
